start=new Date('2023-04-07T00:00:00.000Z').valueOf();
sats=[{"FILE":"3881771","MEAN_MOTION":"15.08848084","TLE_LINE1":"1 52645U 22052AZ  23096.13905982  .00000820  00000-0  69613-4 0  9999","PERIOD":"95.437","DECAY_DATE":null,"MEAN_ANOMALY":"271.2188","MEAN_ELEMENT_THEORY":"SGP4","CENTER_NAME":"EARTH","REF_FRAME":"TEME","MEAN_MOTION_DDOT":"0.0000000000000","EPHEMERIS_TYPE":"0","ECCENTRICITY":"0.00011350","TLE_LINE2":"2 52645  53.2175  16.1336 0001135  88.8935 271.2188 15.08848084 49815","RCS_SIZE":"LARGE","EPOCH":"2023-04-06T03:20:14.768448","LAUNCH_DATE":"2022-05-14","OBJECT_ID":"2022-052AZ","TIME_SYSTEM":"UTC","REV_AT_EPOCH":"4981","PERIAPSIS":"538.936","OBJECT_TYPE":"PAYLOAD","GP_ID":"229611496","ELEMENT_SET_NO":"999","ARG_OF_PERICENTER":"88.8935","CLASSIFICATION_TYPE":"U","NORAD_CAT_ID":"52645","BSTAR":"0.00006961300000","COUNTRY_CODE":"US","RA_OF_ASC_NODE":"16.1336","SITE":"AFETR","OBJECT_NAME":"STARLINK-3973","APOAPSIS":"540.506","INCLINATION":"53.2175","MEAN_MOTION_DOT":"0.00000820","SEMIMAJOR_AXIS":"6917.856"},{"ARG_OF_PERICENTER":"99.5532","NORAD_CAT_ID":"52646","CLASSIFICATION_TYPE":"U","BSTAR":"0.00006885600000","COUNTRY_CODE":"US","RA_OF_ASC_NODE":"13.0606","OBJECT_NAME":"STARLINK-3832","SITE":"AFETR","INCLINATION":"53.2182","APOAPSIS":"540.467","SEMIMAJOR_AXIS":"6917.861","MEAN_MOTION_DOT":"0.00000808","TIME_SYSTEM":"UTC","OBJECT_ID":"2022-052BA","REV_AT_EPOCH":"4992","PERIAPSIS":"538.985","OBJECT_TYPE":"PAYLOAD","ELEMENT_SET_NO":"999","GP_ID":"229644092","EPHEMERIS_TYPE":"0","MEAN_MOTION_DDOT":"0.0000000000000","TLE_LINE2":"2 52646  53.2182  13.0606 0001071  99.5532 260.5581 15.08846231 49923","ECCENTRICITY":"0.00010710","RCS_SIZE":"LARGE","EPOCH":"2023-04-06T19:15:27.708192","LAUNCH_DATE":"2022-05-14","FILE":"3882049","MEAN_MOTION":"15.08846231","TLE_LINE1":"1 52646U 22052BA  23096.80240403  .00000808  00000-0  68856-4 0  9998","DECAY_DATE":null,"PERIOD":"95.437","MEAN_ANOMALY":"260.5581","MEAN_ELEMENT_THEORY":"SGP4","CENTER_NAME":"EARTH","REF_FRAME":"TEME"},{"REV_AT_EPOCH":"4993","OBJECT_ID":"2022-052BB","TIME_SYSTEM":"UTC","OBJECT_TYPE":"PAYLOAD","GP_ID":"229644342","ELEMENT_SET_NO":"999","PERIAPSIS":"538.997","CLASSIFICATION_TYPE":"U","NORAD_CAT_ID":"52647","BSTAR":"0.00007723000000","ARG_OF_PERICENTER":"84.1622","APOAPSIS":"540.506","INCLINATION":"53.2161","MEAN_MOTION_DOT":"0.00000941","SEMIMAJOR_AXIS":"6917.887","RA_OF_ASC_NODE":"12.8987","COUNTRY_CODE":"US","OBJECT_NAME":"STARLINK-3846","SITE":"AFETR","TLE_LINE1":"1 52647U 22052BB  23096.86034490  .00000941  00000-0  77230-4 0  9996","FILE":"3882049","MEAN_MOTION":"15.08837940","MEAN_ANOMALY":"275.9494","MEAN_ELEMENT_THEORY":"SGP4","CENTER_NAME":"EARTH","REF_FRAME":"TEME","PERIOD":"95.438","DECAY_DATE":null,"RCS_SIZE":"LARGE","EPHEMERIS_TYPE":"0","MEAN_MOTION_DDOT":"0.0000000000000","ECCENTRICITY":"0.00010910","TLE_LINE2":"2 52647  53.2161  12.8987 0001091  84.1622 275.9494 15.08837940 49933","LAUNCH_DATE":"2022-05-14","EPOCH":"2023-04-06T20:38:53.799360"},{"ELEMENT_SET_NO":"999","GP_ID":"229610747","OBJECT_TYPE":"PAYLOAD","PERIAPSIS":"538.885","REV_AT_EPOCH":"4981","TIME_SYSTEM":"UTC","OBJECT_ID":"2022-052BC","SEMIMAJOR_AXIS":"6917.841","MEAN_MOTION_DOT":"0.00009701","INCLINATION":"53.2172","APOAPSIS":"540.526","SITE":"AFETR","OBJECT_NAME":"STARLINK-3854","RA_OF_ASC_NODE":"16.0437","COUNTRY_CODE":"US","BSTAR":"0.00062651000000","NORAD_CAT_ID":"52648","CLASSIFICATION_TYPE":"U","ARG_OF_PERICENTER":"87.9348","REF_FRAME":"TEME","MEAN_ELEMENT_THEORY":"SGP4","MEAN_ANOMALY":"272.1780","CENTER_NAME":"EARTH","DECAY_DATE":null,"PERIOD":"95.437","TLE_LINE1":"1 52648U 22052BC  23096.13536818  .00009701  00000-0  62651-3 0  9991","MEAN_MOTION":"15.08852928","FILE":"3881771","LAUNCH_DATE":"2022-05-14","EPOCH":"2023-04-06T03:14:55.810752","RCS_SIZE":"LARGE","TLE_LINE2":"2 52648  53.2172  16.0437 0001186  87.9348 272.1780 15.08852928 49810","ECCENTRICITY":"0.00011860","EPHEMERIS_TYPE":"0","MEAN_MOTION_DDOT":"0.0000000000000"},{"OBJECT_TYPE":"PAYLOAD","ELEMENT_SET_NO":"999","GP_ID":"229645319","PERIAPSIS":"538.812","REV_AT_EPOCH":"4992","TIME_SYSTEM":"UTC","OBJECT_ID":"2022-052BD","INCLINATION":"53.2185","APOAPSIS":"540.691","SEMIMAJOR_AXIS":"6917.886","MEAN_MOTION_DOT":"0.00000975","COUNTRY_CODE":"US","RA_OF_ASC_NODE":"13.0429","SITE":"AFETR","OBJECT_NAME":"STARLINK-3868","CLASSIFICATION_TYPE":"U","NORAD_CAT_ID":"52649","BSTAR":"0.00007935200000","ARG_OF_PERICENTER":"83.5955","MEAN_ELEMENT_THEORY":"SGP4","MEAN_ANOMALY":"276.5192","CENTER_NAME":"EARTH","REF_FRAME":"TEME","DECAY_DATE":null,"PERIOD":"95.438","TLE_LINE1":"1 52649U 22052BD  23096.77199756  .00000975  00000-0  79352-4 0  9999","FILE":"3882049","MEAN_MOTION":"15.08838055","LAUNCH_DATE":"2022-05-14","EPOCH":"2023-04-06T18:31:40.589184","RCS_SIZE":"LARGE","MEAN_MOTION_DDOT":"0.0000000000000","EPHEMERIS_TYPE":"0","ECCENTRICITY":"0.00013580","TLE_LINE2":"2 52649  53.2185  13.0429 0001358  83.5955 276.5192 15.08838055 49922"},{"ELEMENT_SET_NO":"999","GP_ID":"229643604","OBJECT_TYPE":"PAYLOAD","PERIAPSIS":"538.826","REV_AT_EPOCH":"5005","TIME_SYSTEM":"UTC","OBJECT_ID":"2022-052BE","SEMIMAJOR_AXIS":"6917.881","MEAN_MOTION_DOT":"0.00001586","INCLINATION":"53.2172","APOAPSIS":"540.665","OBJECT_NAME":"STARLINK-3891","SITE":"AFETR","RA_OF_ASC_NODE":"3.3782","COUNTRY_CODE":"US","BSTAR":"0.00011771000000","NORAD_CAT_ID":"52650","CLASSIFICATION_TYPE":"U","ARG_OF_PERICENTER":"86.6431","REF_FRAME":"TEME","CENTER_NAME":"EARTH","MEAN_ANOMALY":"273.4714","MEAN_ELEMENT_THEORY":"SGP4","DECAY_DATE":null,"PERIOD":"95.438","TLE_LINE1":"1 52650U 22052BE  23096.72973080  .00001586  00000-0  11771-3 0  9995","MEAN_MOTION":"15.08839920","FILE":"3882049","LAUNCH_DATE":"2022-05-14","EPOCH":"2023-04-06T17:30:48.741120","RCS_SIZE":"LARGE","TLE_LINE2":"2 52650  53.2172   3.3782 0001329  86.6431 273.4714 15.08839920 50059","ECCENTRICITY":"0.00013290","EPHEMERIS_TYPE":"0","MEAN_MOTION_DDOT":"0.0000000000000"},{"DECAY_DATE":null,"PERIOD":"95.437","MEAN_ANOMALY":"271.9378","MEAN_ELEMENT_THEORY":"SGP4","CENTER_NAME":"EARTH","REF_FRAME":"TEME","FILE":"3882049","MEAN_MOTION":"15.08842368","TLE_LINE1":"1 52656U 22053A   23096.76879111  .00002108  00000-0  15046-3 0  9996","EPOCH":"2023-04-06T18:27:03.551904","LAUNCH_DATE":"2022-05-18","MEAN_MOTION_DDOT":"0.0000000000000","EPHEMERIS_TYPE":"0","ECCENTRICITY":"0.00008310","TLE_LINE2":"2 52656  53.2148 268.2043 0000831  88.1710 271.9378 15.08842368 49893","RCS_SIZE":"LARGE","PERIAPSIS":"539.163","OBJECT_TYPE":"PAYLOAD","ELEMENT_SET_NO":"999","GP_ID":"229644603","TIME_SYSTEM":"UTC","OBJECT_ID":"2022-053A","REV_AT_EPOCH":"4989","COUNTRY_CODE":"US","RA_OF_ASC_NODE":"268.2043","SITE":"AFETR","OBJECT_NAME":"STARLINK-4004","INCLINATION":"53.2148","APOAPSIS":"540.313","SEMIMAJOR_AXIS":"6917.873","MEAN_MOTION_DOT":"0.00002108","ARG_OF_PERICENTER":"88.1710","CLASSIFICATION_TYPE":"U","NORAD_CAT_ID":"52656","BSTAR":"0.00015046000000"},{"TIME_SYSTEM":"UTC","OBJECT_ID":"2022-053B","REV_AT_EPOCH":"5019","PERIAPSIS":"538.885","GP_ID":"229644831","ELEMENT_SET_NO":"999","OBJECT_TYPE":"PAYLOAD","ARG_OF_PERICENTER":"112.1994","BSTAR":"0.00010974000000","NORAD_CAT_ID":"52657","CLASSIFICATION_TYPE":"U","SITE":"AFETR","OBJECT_NAME":"STARLINK-4084","COUNTRY_CODE":"US","RA_OF_ASC_NODE":"268.1718","MEAN_MOTION_DOT":"0.00001459","SEMIMAJOR_AXIS":"6917.876","APOAPSIS":"540.596","INCLINATION":"53.2165","MEAN_MOTION":"15.08841578","FILE":"3882049","TLE_LINE1":"1 52657U 22053B   23096.77615125  .00001459  00000-0  10974-3 0  9994","PERIOD":"95.437","DECAY_DATE":null,"REF_FRAME":"TEME","MEAN_ELEMENT_THEORY":"SGP4","MEAN_ANOMALY":"247.9130","CENTER_NAME":"EARTH","TLE_LINE2":"2 52657  53.2165 268.1718 0001237 112.1994 247.9130 15.08841578 50190","ECCENTRICITY":"0.00012370","EPHEMERIS_TYPE":"0","MEAN_MOTION_DDOT":"0.0000000000000","RCS_SIZE":"LARGE","EPOCH":"2023-04-06T18:37:39.468000","LAUNCH_DATE":"2022-05-18"},{"FILE":"3882049","MEAN_MOTION":"15.08843129","TLE_LINE1":"1 52658U 22053C   23096.77247006  .00000921  00000-0  75916-4 0  9995","DECAY_DATE":null,"PERIOD":"95.437","MEAN_ANOMALY":"280.2053","CENTER_NAME":"EARTH","MEAN_ELEMENT_THEORY":"SGP4","REF_FRAME":"TEME","MEAN_MOTION_DDOT":"0.0000000000000","EPHEMERIS_TYPE":"0","ECCENTRICITY":"0.00008930","TLE_LINE2":"2 52658  53.2154 268.1870 0000893  79.9040 280.2053 15.08843129 50016","RCS_SIZE":"LARGE","EPOCH":"2023-04-06T18:32:21.413184","LAUNCH_DATE":"2022-05-18","OBJECT_ID":"2022-053C","TIME_SYSTEM":"UTC","REV_AT_EPOCH":"5001","PERIAPSIS":"539.118","OBJECT_TYPE":"PAYLOAD","ELEMENT_SET_NO":"999","GP_ID":"229644093","ARG_OF_PERICENTER":"79.9040","CLASSIFICATION_TYPE":"U","NORAD_CAT_ID":"52658","BSTAR":"0.00007591600000","COUNTRY_CODE":"US","RA_OF_ASC_NODE":"268.1870","SITE":"AFETR","OBJECT_NAME":"STARLINK-4082","INCLINATION":"53.2154","APOAPSIS":"540.354","SEMIMAJOR_AXIS":"6917.871","MEAN_MOTION_DOT":"0.00000921"},{"TLE_LINE2":"2 52659  53.2139 268.1839 0000947  92.8268 267.2833 15.08840083 50007","ECCENTRICITY":"0.00009470","MEAN_MOTION_DDOT":"0.0000000000000","EPHEMERIS_TYPE":"0","RCS_SIZE":"LARGE","EPOCH":"2023-04-06T18:33:44.218944","LAUNCH_DATE":"2022-05-18","MEAN_MOTION":"15.08840083","FILE":"3882049","TLE_LINE1":"1 52659U 22053D   23096.77342846  .00000706  00000-0  62429-4 0  9990","PERIOD":"95.438","DECAY_DATE":null,"REF_FRAME":"TEME","MEAN_ELEMENT_THEORY":"SGP4","MEAN_ANOMALY":"267.2833","CENTER_NAME":"EARTH","ARG_OF_PERICENTER":"92.8268","BSTAR":"0.00006242900000","NORAD_CAT_ID":"52659","CLASSIFICATION_TYPE":"U","SITE":"AFETR","OBJECT_NAME":"STARLINK-3960","COUNTRY_CODE":"US","RA_OF_ASC_NODE":"268.1839","MEAN_MOTION_DOT":"0.00000706","SEMIMAJOR_AXIS":"6917.880","APOAPSIS":"540.400","INCLINATION":"53.2139","OBJECT_ID":"2022-053D","TIME_SYSTEM":"UTC","REV_AT_EPOCH":"5000","PERIAPSIS":"539.090","GP_ID":"229644343","ELEMENT_SET_NO":"999","OBJECT_TYPE":"PAYLOAD"}];
